CCSDS_OMM_VERS = 2.0
CREATION_DATE  = 
ORIGINATOR     = 

OBJECT_NAME    = YOTSUBA-KULOVER
OBJECT_ID      = 1998-067XN
CENTER_NAME    = EARTH
REF_FRAME      = TEME
TIME_SYSTEM    = UTC
MEAN_ELEMENT_THEORY = SGP/SGP4

EPOCH          = 2026-03-11T03:49:48.099936
MEAN_MOTION    = 15.81236605
ECCENTRICITY   = .00053633
INCLINATION    = 51.6213
RA_OF_ASC_NODE = 49.6653
ARG_OF_PERICENTER = 77.4147
MEAN_ANOMALY   = 282.7454

EPHEMERIS_TYPE = 0
CLASSIFICATION_TYPE = U
NORAD_CAT_ID   = 65941
ELEMENT_SET_NO = 999
REV_AT_EPOCH   = 2373
BSTAR          = .12152531E-2
MEAN_MOTION_DOT = .251035E-2
MEAN_MOTION_DDOT = 0

CCSDS_OMM_VERS = 2.0
CREATION_DATE  = 
ORIGINATOR     = 

OBJECT_NAME    = E-KAGAKU-1
OBJECT_ID      = 1998-067XQ
CENTER_NAME    = EARTH
REF_FRAME      = TEME
TIME_SYSTEM    = UTC
MEAN_ELEMENT_THEORY = SGP/SGP4

EPOCH          = 2026-03-11T05:27:43.872768
MEAN_MOTION    = 15.80890541
ECCENTRICITY   = .00058368
INCLINATION    = 51.6235
RA_OF_ASC_NODE = 49.3873
ARG_OF_PERICENTER = 84.4935
MEAN_ANOMALY   = 275.6732

EPHEMERIS_TYPE = 0
CLASSIFICATION_TYPE = U
NORAD_CAT_ID   = 65943
ELEMENT_SET_NO = 999
REV_AT_EPOCH   = 2374
BSTAR          = .11956472E-2
MEAN_MOTION_DOT = .242861E-2
MEAN_MOTION_DDOT = 0

CCSDS_OMM_VERS = 2.0
CREATION_DATE  = 
ORIGINATOR     = 

OBJECT_NAME    = HRC MONOBLOCK CAMERA
OBJECT_ID      = 1998-067XR
CENTER_NAME    = EARTH
REF_FRAME      = TEME
TIME_SYSTEM    = UTC
MEAN_ELEMENT_THEORY = SGP/SGP4

EPOCH          = 2026-03-11T05:39:10.099584
MEAN_MOTION    = 15.62390201
ECCENTRICITY   = .00036891
INCLINATION    = 51.6284
RA_OF_ASC_NODE = 57.7302
ARG_OF_PERICENTER = 99.5836
MEAN_ANOMALY   = 260.5575

EPHEMERIS_TYPE = 0
CLASSIFICATION_TYPE = U
NORAD_CAT_ID   = 66052
ELEMENT_SET_NO = 999
REV_AT_EPOCH   = 2263
BSTAR          = .65425261E-3
MEAN_MOTION_DOT = .59053E-3
MEAN_MOTION_DDOT = 0

CCSDS_OMM_VERS = 2.0
CREATION_DATE  = 
ORIGINATOR     = 

OBJECT_NAME    = HTV-X1
OBJECT_ID      = 2025-241A
CENTER_NAME    = EARTH
REF_FRAME      = TEME
TIME_SYSTEM    = UTC
MEAN_ELEMENT_THEORY = SGP/SGP4

EPOCH          = 2026-03-11T04:35:18.514464
MEAN_MOTION    = 15.48575655
ECCENTRICITY   = .00079324
INCLINATION    = 51.6325
RA_OF_ASC_NODE = 64.9326
ARG_OF_PERICENTER = 179.9008
MEAN_ANOMALY   = 180.1983

EPHEMERIS_TYPE = 0
CLASSIFICATION_TYPE = U
NORAD_CAT_ID   = 66174
ELEMENT_SET_NO = 999
REV_AT_EPOCH   = 55447
BSTAR          = .17769709E-3
MEAN_MOTION_DOT = .9215E-4
MEAN_MOTION_DDOT = 0

CCSDS_OMM_VERS = 2.0
CREATION_DATE  = 
ORIGINATOR     = 

OBJECT_NAME    = SZ-21 MODULE
OBJECT_ID      = 2025-246C
CENTER_NAME    = EARTH
REF_FRAME      = TEME
TIME_SYSTEM    = UTC
MEAN_ELEMENT_THEORY = SGP/SGP4

EPOCH          = 2026-03-10T09:24:12.315744
MEAN_MOTION    = 15.68612654
ECCENTRICITY   = .00013212
INCLINATION    = 41.4733
RA_OF_ASC_NODE = 199.0379
ARG_OF_PERICENTER = 300.4317
MEAN_ANOMALY   = 59.6394

EPHEMERIS_TYPE = 0
CLASSIFICATION_TYPE = U
NORAD_CAT_ID   = 66515
ELEMENT_SET_NO = 999
REV_AT_EPOCH   = 1818
BSTAR          = .39494604E-3
MEAN_MOTION_DOT = .46134E-3
MEAN_MOTION_DDOT = 0

CCSDS_OMM_VERS = 2.0
CREATION_DATE  = 
ORIGINATOR     = 

OBJECT_NAME    = SHENZHOU-22
OBJECT_ID      = 2025-272A
CENTER_NAME    = EARTH
REF_FRAME      = TEME
TIME_SYSTEM    = UTC
MEAN_ELEMENT_THEORY = SGP/SGP4

EPOCH          = 2026-03-11T07:34:04.372896
MEAN_MOTION    = 15.60754326
ECCENTRICITY   = .00069247
INCLINATION    = 41.4660
RA_OF_ASC_NODE = 198.2695
ARG_OF_PERICENTER = 282.6574
MEAN_ANOMALY   = 77.3490

EPHEMERIS_TYPE = 0
CLASSIFICATION_TYPE = U
NORAD_CAT_ID   = 66645
ELEMENT_SET_NO = 999
REV_AT_EPOCH   = 26752
BSTAR          = .3298799E-3
MEAN_MOTION_DOT = .28032E-3
MEAN_MOTION_DDOT = 0

CCSDS_OMM_VERS = 2.0
CREATION_DATE  = 
ORIGINATOR     = 

OBJECT_NAME    = SOYUZ-MS 28
OBJECT_ID      = 2025-275A
CENTER_NAME    = EARTH
REF_FRAME      = TEME
TIME_SYSTEM    = UTC
MEAN_ELEMENT_THEORY = SGP/SGP4

EPOCH          = 2026-03-11T04:35:18.514464
MEAN_MOTION    = 15.48575655
ECCENTRICITY   = .00079324
INCLINATION    = 51.6325
RA_OF_ASC_NODE = 64.9326
ARG_OF_PERICENTER = 179.9008
MEAN_ANOMALY   = 180.1983

EPHEMERIS_TYPE = 0
CLASSIFICATION_TYPE = U
NORAD_CAT_ID   = 66664
ELEMENT_SET_NO = 999
REV_AT_EPOCH   = 55452
BSTAR          = .17769709E-3
MEAN_MOTION_DOT = .9215E-4
MEAN_MOTION_DDOT = 0

CCSDS_OMM_VERS = 2.0
CREATION_DATE  = 
ORIGINATOR     = 

OBJECT_NAME    = DUPLEX
OBJECT_ID      = 1998-067XS
CENTER_NAME    = EARTH
REF_FRAME      = TEME
TIME_SYSTEM    = UTC
MEAN_ELEMENT_THEORY = SGP/SGP4

EPOCH          = 2026-03-11T04:35:45.013344
MEAN_MOTION    = 15.56334996
ECCENTRICITY   = .00025436
INCLINATION    = 51.6293
RA_OF_ASC_NODE = 61.9382
ARG_OF_PERICENTER = 119.4650
MEAN_ANOMALY   = 240.6595

EPHEMERIS_TYPE = 0
CLASSIFICATION_TYPE = U
NORAD_CAT_ID   = 66906
ELEMENT_SET_NO = 999
REV_AT_EPOCH   = 1536
BSTAR          = .56316723E-3
MEAN_MOTION_DOT = .40148E-3
MEAN_MOTION_DDOT = 0

CCSDS_OMM_VERS = 2.0
CREATION_DATE  = 
ORIGINATOR     = 

OBJECT_NAME    = ISS OBJECT XT
OBJECT_ID      = 1998-067XT
CENTER_NAME    = EARTH
REF_FRAME      = TEME
TIME_SYSTEM    = UTC
MEAN_ELEMENT_THEORY = SGP/SGP4

EPOCH          = 2026-03-11T05:43:09.095808
MEAN_MOTION    = 15.69794721
ECCENTRICITY   = .00047452
INCLINATION    = 51.6251
RA_OF_ASC_NODE = 57.7346
ARG_OF_PERICENTER = 87.9438
MEAN_ANOMALY   = 272.2103

EPHEMERIS_TYPE = 0
CLASSIFICATION_TYPE = U
NORAD_CAT_ID   = 66907
ELEMENT_SET_NO = 999
REV_AT_EPOCH   = 1542
BSTAR          = .14361312E-2
MEAN_MOTION_DOT = .178159E-2
MEAN_MOTION_DDOT = 0

CCSDS_OMM_VERS = 2.0
CREATION_DATE  = 
ORIGINATOR     = 

OBJECT_NAME    = ISS OBJECT XU
OBJECT_ID      = 1998-067XU
CENTER_NAME    = EARTH
REF_FRAME      = TEME
TIME_SYSTEM    = UTC
MEAN_ELEMENT_THEORY = SGP/SGP4

EPOCH          = 2026-03-11T04:08:43.061568
MEAN_MOTION    = 15.69895705
ECCENTRICITY   = .00048972
INCLINATION    = 51.6261
RA_OF_ASC_NODE = 58.0443
ARG_OF_PERICENTER = 89.2541
MEAN_ANOMALY   = 270.9017

EPHEMERIS_TYPE = 0
CLASSIFICATION_TYPE = U
NORAD_CAT_ID   = 66908
ELEMENT_SET_NO = 999
REV_AT_EPOCH   = 1541
BSTAR          = .14502749E-2
MEAN_MOTION_DOT = .180739E-2
MEAN_MOTION_DDOT = 0

CCSDS_OMM_VERS = 2.0
CREATION_DATE  = 
ORIGINATOR     = 

OBJECT_NAME    = SILVERSAT
OBJECT_ID      = 1998-067XV
CENTER_NAME    = EARTH
REF_FRAME      = TEME
TIME_SYSTEM    = UTC
MEAN_ELEMENT_THEORY = SGP/SGP4

EPOCH          = 2026-03-11T05:37:58.521504
MEAN_MOTION    = 15.72937624
ECCENTRICITY   = .00054664
INCLINATION    = 51.6250
RA_OF_ASC_NODE = 56.9557
ARG_OF_PERICENTER = 87.1357
MEAN_ANOMALY   = 273.0267

EPHEMERIS_TYPE = 0
CLASSIFICATION_TYPE = U
NORAD_CAT_ID   = 66909
ELEMENT_SET_NO = 999
REV_AT_EPOCH   = 1543
BSTAR          = .16574236E-2
MEAN_MOTION_DOT = .236525E-2
MEAN_MOTION_DDOT = 0

CCSDS_OMM_VERS = 2.0
CREATION_DATE  = 
ORIGINATOR     = 

OBJECT_NAME    = ISS OBJECT XW
OBJECT_ID      = 1998-067XW
CENTER_NAME    = EARTH
REF_FRAME      = TEME
TIME_SYSTEM    = UTC
MEAN_ELEMENT_THEORY = SGP/SGP4

EPOCH          = 2026-03-11T05:36:44.038656
MEAN_MOTION    = 15.69081269
ECCENTRICITY   = .00053156
INCLINATION    = 51.6252
RA_OF_ASC_NODE = 57.6975
ARG_OF_PERICENTER = 95.4804
MEAN_ANOMALY   = 264.6799

EPHEMERIS_TYPE = 0
CLASSIFICATION_TYPE = U
NORAD_CAT_ID   = 66910
ELEMENT_SET_NO = 999
REV_AT_EPOCH   = 1542
BSTAR          = .13202803E-2
MEAN_MOTION_DOT = .158614E-2
MEAN_MOTION_DDOT = 0

